{
    "links": {
        "self": "http://www.neowsapp.com/rest/v1/neo/3137739?api_key=iIulBulltgU6a56xZRHN4H3l9WmuAYTsLGpBGhQ2"
    },
    "id": "3137739",
    "neo_reference_id": "3137739",
    "name": "(2002 TC60)",
    "designation": "2002 TC60",
    "nasa_jpl_url": "http://ssd.jpl.nasa.gov/sbdb.cgi?sstr=3137739",
    "absolute_magnitude_h": 18.4,
    "estimated_diameter": {
        "kilometers": {
            "estimated_diameter_min": 0.5553349116,
            "estimated_diameter_max": 1.2417666126
        },
        "meters": {
            "estimated_diameter_min": 555.334911581,
            "estimated_diameter_max": 1241.766612574
        },
        "miles": {
            "estimated_diameter_min": 0.3450690093,
            "estimated_diameter_max": 0.7715977618
        },
        "feet": {
            "estimated_diameter_min": 1821.9649913114,
            "estimated_diameter_max": 4074.0375731972
        }
    },
    "is_potentially_hazardous_asteroid": false,
    "close_approach_data": [
        {
            "close_approach_date": "1913-09-25",
            "close_approach_date_full": "1913-Sep-25 01:27",
            "epoch_date_close_approach": -1775687580000,
            "relative_velocity": {
                "kilometers_per_second": "15.6822310373",
                "kilometers_per_hour": "56456.0317343081",
                "miles_per_hour": "35079.5826073538"
            },
            "miss_distance": {
                "astronomical": "0.4894643012",
                "lunar": "190.4016131668",
                "kilometers": "73222816.900558444",
                "miles": "45498548.6262727672"
            },
            "orbiting_body": "Earth"
        },
        {
            "close_approach_date": "1917-09-23",
            "close_approach_date_full": "1917-Sep-23 15:08",
            "epoch_date_close_approach": -1649580720000,
            "relative_velocity": {
                "kilometers_per_second": "17.4602847872",
                "kilometers_per_hour": "62857.0252340932",
                "miles_per_hour": "39056.9110405953"
            },
            "miss_distance": {
                "astronomical": "0.4456981489",
                "lunar": "173.3765799221",
                "kilometers": "66675493.738382843",
                "miles": "41430230.6637075134"
            },
            "orbiting_body": "Earth"
        },
        {
            "close_approach_date": "2002-09-23",
            "close_approach_date_full": "2002-Sep-23 11:14",
            "epoch_date_close_approach": 1032779640000,
            "relative_velocity": {
                "kilometers_per_second": "16.4843707821",
                "kilometers_per_hour": "59343.73481565",
                "miles_per_hour": "36873.8890025354"
            },
            "miss_distance": {
                "astronomical": "0.456912095",
                "lunar": "177.738804955",
                "kilometers": "68353076.18923765",
                "miles": "42472632.06187357"
            },
            "orbiting_body": "Earth"
        },
        {
            "close_approach_date": "2071-09-23",
            "close_approach_date_full": "2071-Sep-23 04:07",
            "epoch_date_close_approach": 3210206820000,
            "relative_velocity": {
                "kilometers_per_second": "16.7844822411",
                "kilometers_per_hour": "60424.1360678866",
                "miles_per_hour": "37545.208325071"
            },
            "miss_distance": {
                "astronomical": "0.4552725632",
                "lunar": "177.1010270848",
                "kilometers": "68107805.724160384",
                "miles": "42320228.0619419392"
            },
            "orbiting_body": "Earth"
        },
        {
            "close_approach_date": "2160-09-22",
            "close_approach_date_full": "2160-Sep-22 11:36",
            "epoch_date_close_approach": 6018752160000,
            "relative_velocity": {
                "kilometers_per_second": "17.484284289",
                "kilometers_per_hour": "62943.4234403719",
                "miles_per_hour": "39110.5955260467"
            },
            "miss_distance": {
                "astronomical": "0.472226303",
                "lunar": "183.696031867",
                "kilometers": "70644049.08677461",
                "miles": "43896176.609765218"
            },
            "orbiting_body": "Earth"
        }
    ],
    "orbital_data": {
        "orbit_id": "21",
        "orbit_determination_date": "2019-07-30 05:17:25",
        "first_observation_date": "2002-10-05",
        "last_observation_date": "2018-04-08",
        "data_arc_in_days": 5664,
        "observations_used": 68,
        "orbit_uncertainty": "0",
        "minimum_orbit_intersection": ".461719",
        "jupiter_tisserand_invariant": "3.079",
        "epoch_osculation": "2459000.5",
        "eccentricity": ".4947072731221892",
        "semi_major_axis": "2.547277686775055",
        "inclination": "31.57634153413569",
        "ascending_node_longitude": "19.378973741511",
        "orbital_period": "1484.953532767155",
        "perihelion_distance": "1.28712088846557",
        "perihelion_argument": "296.9525342779083",
        "aphelion_distance": "3.80743448508454",
        "perihelion_time": "2458416.362852510247",
        "mean_anomaly": "141.6134366874394",
        "mean_motion": ".2424318283745577",
        "equinox": "J2000",
        "orbit_class": {
            "orbit_class_type": "AMO",
            "orbit_class_description": "Near-Earth asteroid orbits similar to that of 1221 Amor",
            "orbit_class_range": "1.017 AU < q (perihelion) < 1.3 AU"
        }
    },
    "is_sentry_object": false
}